[{"OBJECT_NAME":"YAOGAN-35 04C","OBJECT_ID":"2022-100E","EPOCH":"2026-03-09T22:54:54.133344","MEAN_MOTION":15.20344073,"ECCENTRICITY":0.00105729,"INCLINATION":34.9966,"RA_OF_ASC_NODE":338.2554,"ARG_OF_PERICENTER":249.1689,"MEAN_ANOMALY":110.7893,"EPHEMERIS_TYPE":0,"CLASSIFICATION_TYPE":"U","NORAD_CAT_ID":53526,"ELEMENT_SET_NO":999,"REV_AT_EPOCH":19784,"BSTAR":0.00040733017,"MEAN_MOTION_DOT":9.062e-5,"MEAN_MOTION_DDOT":0},{"OBJECT_NAME":"HAWK-6A","OBJECT_ID":"2023-011D","EPOCH":"2026-03-09T16:08:26.246400","MEAN_MOTION":15.21907632,"ECCENTRICITY":0.00021565,"INCLINATION":40.4983,"RA_OF_ASC_NODE":210.5544,"ARG_OF_PERICENTER":2.866,"MEAN_ANOMALY":357.2161,"EPHEMERIS_TYPE":0,"CLASSIFICATION_TYPE":"U","NORAD_CAT_ID":55327,"ELEMENT_SET_NO":999,"REV_AT_EPOCH":17268,"BSTAR":0.00032723111,"MEAN_MOTION_DOT":7.421e-5,"MEAN_MOTION_DDOT":0}]
